{"type": "FeatureCollection", "features": [ {"type": "Feature", "properties": {"norad_id": 30061, "name": "FENGYUN 1C DEB", "group": "fengyun-1c-debris", "lat": 49.86998750352572, "lon": 90.50637118000338, "alt_km": 1358.662718555759, "timestamp": "2025-12-19T22:41:52.665434+00:00", "meta": {"OBJECT_NAME": "FENGYUN 1C DEB", "OBJECT_ID": "1999-025PN", "EPOCH": "2025-12-19T06:31:29.123904", "MEAN_MOTION": 13.46484359, "ECCENTRICITY": 0.0373174, "INCLINATION": 101.8756, "RA_OF_ASC_NODE": 104.1623, "ARG_OF_PERICENTER": 235.755, "MEAN_ANOMALY": 150.4595, "EPHEMERIS_TYPE": 0, "CLASSIFICATION_TYPE": "U", "NORAD_CAT_ID": 30061, "ELEMENT_SET_NO": 999, "REV_AT_EPOCH": 92187, "BSTAR": 0.002518, "MEAN_MOTION_DOT": 2.255e-05, "MEAN_MOTION_DDOT": 0}, "tle": {"line1": "1 30061U 99025PN  25353.27186486  .00002255  00000+0  25180-2 0  9996", "line2": "2 30061 101.8756 104.1623 0373174 235.7550 150.4595 13.46484359921872"}}, "geometry": {"type": "Point", "coordinates": [90.50637118000338, 49.86998750352572]}}, {"type": "Feature", "properties": {"norad_id": 30062, "name": "FENGYUN 1C DEB", "group": "fengyun-1c-debris", "lat": 52.35570956448097, "lon": -165.51562646297327, "alt_km": 869.4150672290771, "timestamp": "2025-12-19T22:41:52.665445+00:00", "meta": {"OBJECT_NAME": "FENGYUN 1C DEB", "OBJECT_ID": "1999-025PP", "EPOCH": "2025-12-19T19:30:28.639008", "MEAN_MOTION": 14.07121573, "ECCENTRICITY": 0.0049253, "INCLINATION": 98.7804, "RA_OF_ASC_NODE": 2.7965, "ARG_OF_PERICENTER": 28.5583, "MEAN_ANOMALY": 144.6371, "EPHEMERIS_TYPE": 0, "CLASSIFICATION_TYPE": "U", "NORAD_CAT_ID": 30062, "ELEMENT_SET_NO": 999, "REV_AT_EPOCH": 97007, "BSTAR": 0.00022888, "MEAN_MOTION_DOT": 3.44e-06, "MEAN_MOTION_DDOT": 0}, "tle": {"line1": "1 30062U 99025PP  25353.81283147  .00000344  00000+0  22888-3 0  9999", "line2": "2 30062  98.7804   2.7965 0049253  28.5583 144.6371 14.07121573970072"}}, "geometry": {"type": "Point", "coordinates": [-165.51562646297327, 52.35570956448097]}}, {"type": "Feature", "properties": {"norad_id": 30063, "name": "FENGYUN 1C DEB", "group": "fengyun-1c-debris", "lat": -1.8475476554346166, "lon": -27.27900788062435, "alt_km": 853.7393751399877, "timestamp": "2025-12-19T22:41:52.665482+00:00", "meta": {"OBJECT_NAME": "FENGYUN 1C DEB", "OBJECT_ID": "1999-025PQ", "EPOCH": "2025-12-19T11:23:49.954272", "MEAN_MOTION": 14.15613823, "ECCENTRICITY": 0.0033238, "INCLINATION": 98.5219, "RA_OF_ASC_NODE": 331.9937, "ARG_OF_PERICENTER": 115.3573, "MEAN_ANOMALY": 4.9641, "EPHEMERIS_TYPE": 0, "CLASSIFICATION_TYPE": "U", "NORAD_CAT_ID": 30063, "ELEMENT_SET_NO": 999, "REV_AT_EPOCH": 97760, "BSTAR": 5.4889e-05, "MEAN_MOTION_DOT": 6.7e-07, "MEAN_MOTION_DDOT": 0}, "tle": {"line1": "1 30063U 99025PQ  25353.47488373  .00000067  00000+0  54889-4 0  9999", "line2": "2 30063  98.5219 331.9937 0033238 115.3573   4.9641 14.15613823977604"}}, "geometry": {"type": "Point", "coordinates": [-27.27900788062435, -1.8475476554346166]}}, {"type": "Feature", "properties": {"norad_id": 30064, "name": "FENGYUN 1C DEB", "group": "fengyun-1c-debris", "lat": 81.2606435365768, "lon": -77.77185174232359, "alt_km": 789.1778352850924, "timestamp": "2025-12-19T22:41:52.665495+00:00", "meta": {"OBJECT_NAME": "FENGYUN 1C DEB", "OBJECT_ID": "1999-025PR", "EPOCH": "2025-12-19T11:10:49.471104", "MEAN_MOTION": 14.14273996, "ECCENTRICITY": 0.0066691, "INCLINATION": 98.6613, "RA_OF_ASC_NODE": 4.3128, "ARG_OF_PERICENTER": 92.4704, "MEAN_ANOMALY": 74.457, "EPHEMERIS_TYPE": 0, "CLASSIFICATION_TYPE": "U", "NORAD_CAT_ID": 30064, "ELEMENT_SET_NO": 999, "REV_AT_EPOCH": 97600, "BSTAR": 0.00014008, "MEAN_MOTION_DOT": 2.31e-06, "MEAN_MOTION_DDOT": 0}, "tle": {"line1": "1 30064U 99025PR  25353.46585036  .00000231  00000+0  14008-3 0  9994", "line2": "2 30064  98.6613   4.3128 0066691  92.4704  74.4570 14.14273996976005"}}, "geometry": {"type": "Point", "coordinates": [-77.77185174232359, 81.2606435365768]}}, {"type": "Feature", "properties": {"norad_id": 30065, "name": "FENGYUN 1C DEB", "group": "fengyun-1c-debris", "lat": 56.15596773049105, "lon": -46.91149266588209, "alt_km": 865.6366342169158, "timestamp": "2025-12-19T22:41:52.665507+00:00", "meta": {"OBJECT_NAME": "FENGYUN 1C DEB", "OBJECT_ID": "1999-025PS", "EPOCH": "2025-12-19T17:14:08.827008", "MEAN_MOTION": 13.86918704, "ECCENTRICITY": 0.0131395, "INCLINATION": 98.6848, "RA_OF_ASC_NODE": 326.0527, "ARG_OF_PERICENTER": 12.6423, "MEAN_ANOMALY": 347.7979, "EPHEMERIS_TYPE": 0, "CLASSIFICATION_TYPE": "U", "NORAD_CAT_ID": 30065, "ELEMENT_SET_NO": 999, "REV_AT_EPOCH": 95768, "BSTAR": 0.00013202, "MEAN_MOTION_DOT": 1.25e-06, "MEAN_MOTION_DDOT": 0}, "tle": {"line1": "1 30065U 99025PS  25353.71815772  .00000125  00000+0  13202-3 0  9993", "line2": "2 30065  98.6848 326.0527 0131395  12.6423 347.7979 13.86918704957682"}}, "geometry": {"type": "Point", "coordinates": [-46.91149266588209, 56.15596773049105]}}, {"type": "Feature", "properties": {"norad_id": 30066, "name": "FENGYUN 1C DEB", "group": "fengyun-1c-debris", "lat": 39.355521389482526, "lon": -22.963222950924546, "alt_km": 903.7729556551767, "timestamp": "2025-12-19T22:41:52.665518+00:00", "meta": {"OBJECT_NAME": "FENGYUN 1C DEB", "OBJECT_ID": "1999-025PT", "EPOCH": "2025-12-19T12:55:06.529728", "MEAN_MOTION": 14.19114253, "ECCENTRICITY": 0.0116781, "INCLINATION": 98.6345, "RA_OF_ASC_NODE": 343.7982, "ARG_OF_PERICENTER": 242.1119, "MEAN_ANOMALY": 236.8307, "EPHEMERIS_TYPE": 0, "CLASSIFICATION_TYPE": "U", "NORAD_CAT_ID": 30066, "ELEMENT_SET_NO": 999, "REV_AT_EPOCH": 97933, "BSTAR": 0.00011864, "MEAN_MOTION_DOT": 2.22e-06, "MEAN_MOTION_DDOT": 0}, "tle": {"line1": "1 30066U 99025PT  25353.53827002  .00000222  00000+0  11864-3 0  9993", "line2": "2 30066  98.6345 343.7982 0116781 242.1119 236.8307 14.19114253979333"}}, "geometry": {"type": "Point", "coordinates": [-22.963222950924546, 39.355521389482526]}}, {"type": "Feature", "properties": {"norad_id": 30067, "name": "FENGYUN 1C DEB", "group": "fengyun-1c-debris", "lat": -56.90707091429973, "lon": 46.54996364474891, "alt_km": 803.964222907096, "timestamp": "2025-12-19T22:41:52.665529+00:00", "meta": {"OBJECT_NAME": "FENGYUN 1C DEB", "OBJECT_ID": "1999-025PU", "EPOCH": "2025-12-19T05:31:12.330048", "MEAN_MOTION": 14.43705114, "ECCENTRICITY": 0.0151532, "INCLINATION": 98.7657, "RA_OF_ASC_NODE": 239.5079, "ARG_OF_PERICENTER": 358.7639, "MEAN_ANOMALY": 122.8323, "EPHEMERIS_TYPE": 0, "CLASSIFICATION_TYPE": "U", "NORAD_CAT_ID": 30067, "ELEMENT_SET_NO": 999, "REV_AT_EPOCH": 99292, "BSTAR": 0.00030259, "MEAN_MOTION_DOT": 1.128e-05, "MEAN_MOTION_DDOT": 0}, "tle": {"line1": "1 30067U 99025PU  25353.23000382  .00001128  00000+0  30259-3 0  9990", "line2": "2 30067  98.7657 239.5079 0151532 358.7639 122.8323 14.43705114992925"}}, "geometry": {"type": "Point", "coordinates": [46.54996364474891, -56.90707091429973]}}, {"type": "Feature", "properties": {"norad_id": 30068, "name": "FENGYUN 1C DEB", "group": "fengyun-1c-debris", "lat": 20.585995119626876, "lon": -21.736593822504343, "alt_km": 767.3438057935446, "timestamp": "2025-12-19T22:41:52.665539+00:00", "meta": {"OBJECT_NAME": "FENGYUN 1C DEB", "OBJECT_ID": "1999-025PV", "EPOCH": "2025-12-19T10:41:53.930112", "MEAN_MOTION": 14.12053368, "ECCENTRICITY": 0.0189648, "INCLINATION": 98.7369, "RA_OF_ASC_NODE": 341.0871, "ARG_OF_PERICENTER": 329.7561, "MEAN_ANOMALY": 29.2771, "EPHEMERIS_TYPE": 0, "CLASSIFICATION_TYPE": "U", "NORAD_CAT_ID": 30068, "ELEMENT_SET_NO": 999, "REV_AT_EPOCH": 97438, "BSTAR": 0.00014563, "MEAN_MOTION_DOT": 2.72e-06, "MEAN_MOTION_DDOT": 0}, "tle": {"line1": "1 30068U 99025PV  25353.44576308  .00000272  00000+0  14563-3 0  9999", "line2": "2 30068  98.7369 341.0871 0189648 329.7561  29.2771 14.12053368974386"}}, "geometry": {"type": "Point", "coordinates": [-21.736593822504343, 20.585995119626876]}}, {"type": "Feature", "properties": {"norad_id": 30069, "name": "FENGYUN 1C DEB", "group": "fengyun-1c-debris", "lat": -73.45917800897227, "lon": 7.02711616550476, "alt_km": 894.657940067179, "timestamp": "2025-12-19T22:41:52.665550+00:00", "meta": {"OBJECT_NAME": "FENGYUN 1C DEB", "OBJECT_ID": "1999-025PW", "EPOCH": "2025-12-19T11:39:13.913280", "MEAN_MOTION": 14.0522936, "ECCENTRICITY": 0.0049603, "INCLINATION": 98.8017, "RA_OF_ASC_NODE": 335.1349, "ARG_OF_PERICENTER": 34.51, "MEAN_ANOMALY": 83.4819, "EPHEMERIS_TYPE": 0, "CLASSIFICATION_TYPE": "U", "NORAD_CAT_ID": 30069, "ELEMENT_SET_NO": 999, "REV_AT_EPOCH": 96941, "BSTAR": 0.00033082, "MEAN_MOTION_DOT": 4.98e-06, "MEAN_MOTION_DDOT": 0}, "tle": {"line1": "1 30069U 99025PW  25353.48557770  .00000498  00000+0  33082-3 0  9993", "line2": "2 30069  98.8017 335.1349 0049603  34.5100  83.4819 14.05229360969410"}}, "geometry": {"type": "Point", "coordinates": [7.02711616550476, -73.45917800897227]}}, {"type": "Feature", "properties": {"norad_id": 30070, "name": "FENGYUN 1C DEB", "group": "fengyun-1c-debris", "lat": -12.485347424612389, "lon": -128.8228678805134, "alt_km": 920.8027094718109, "timestamp": "2025-12-19T22:41:52.665561+00:00", "meta": {"OBJECT_NAME": "FENGYUN 1C DEB", "OBJECT_ID": "1999-025PX", "EPOCH": "2025-12-19T15:41:55.173120", "MEAN_MOTION": 14.09964578, "ECCENTRICITY": 0.0327981, "INCLINATION": 98.2863, "RA_OF_ASC_NODE": 52.7571, "ARG_OF_PERICENTER": 299.0303, "MEAN_ANOMALY": 217.6362, "EPHEMERIS_TYPE": 0, "CLASSIFICATION_TYPE": "U", "NORAD_CAT_ID": 30070, "ELEMENT_SET_NO": 999, "REV_AT_EPOCH": 95976, "BSTAR": 0.0010338, "MEAN_MOTION_DOT": 2.963e-05, "MEAN_MOTION_DDOT": 0}, "tle": {"line1": "1 30070U 99025PX  25353.65411080  .00002963  00000+0  10338-2 0  9994", "line2": "2 30070  98.2863  52.7571 0327981 299.0303 217.6362 14.09964578959767"}}, "geometry": {"type": "Point", "coordinates": [-128.8228678805134, -12.485347424612389]}}]}